$$SOE
2460728.500000000, A.D. 2025-Feb-22 00:00:00.0000, 9.519736080610414E+07, 8.587480611945219E+07, -5.718954138168801E+07,
2460735.500000000, A.D. 2025-Mar-01 00:00:00.0000, 8.109311710432377E+07, 9.876041517350888E+07, -5.316532570700887E+07,
2460742.500000000, A.D. 2025-Mar-08 00:00:00.0000, 6.550857428273795E+07, 1.098395254026197E+08, -4.816995950263377E+07,
2460749.500000000, A.D. 2025-Mar-15 00:00:00.0000, 4.868235289539377E+07, 1.188325282630921E+08, -4.226082140601597E+07,
2460756.500000000, A.D. 2025-Mar-22 00:00:00.0000, 3.090340911840706E+07, 1.254951718803681E+08, -3.552378354289746E+07,
2460763.500000000, A.D. 2025-Mar-29 00:00:00.0000, 1.250426412872844E+07, 1.296333800395271E+08, -2.807278041597554E+07,
2460770.500000000, A.D. 2025-Apr-05 00:00:00.0000, -6.150056434056071E+06, 1.311165756356074E+08, -2.004721228799880E+07,
2460777.500000000, A.D. 2025-Apr-12 00:00:00.0000, -2.467677770599934E+07, 1.298876893287415E+08, -1.160713187437477E+07,
2460784.500000000, A.D. 2025-Apr-19 00:00:00.0000, -4.269250364798649E+07, 1.259683002665961E+08, -2.926531782435343E+06,
2460791.500000000, A.D. 2025-Apr-26 00:00:00.0000, -5.983086372620802E+07, 1.194580180084344E+08, 5.814598776948340E+06,
2460798.500000000, A.D. 2025-May-03 00:00:00.0000, -7.575866565001810E+07, 1.105281285277326E+08, 1.443855040106478E+07,
2460805.500000000, A.D. 2025-May-10 00:00:00.0000, -9.018882003682856E+07, 9.941044562672360E+07, 2.277756946792272E+07,
2460812.500000000, A.D. 2025-May-17 00:00:00.0000, -1.028889311707452E+08, 8.638298049067318E+07, 3.068016244599922E+07,
2460819.500000000, A.D. 2025-May-24 00:00:00.0000, -1.136852285148374E+08, 7.175431292325662E+07, 3.801555688796154E+07,
2460826.500000000, A.D. 2025-May-31 00:00:00.0000, -1.224622272619226E+08, 5.584841240651063E+07, 4.467618803821863E+07,
2460833.500000000, A.D. 2025-Jun-07 00:00:00.0000, -1.291589985593264E+08, 3.899123289506021E+07, 5.057837224471687E+07,
2460840.500000000, A.D. 2025-Jun-14 00:00:00.0000, -1.337631480861731E+08, 2.149985838872917E+07, 5.566151901298133E+07,
2460847.500000000, A.D. 2025-Jun-21 00:00:00.0000, -1.363035749913535E+08, 3.674459385852370E+06, 5.988631214951553E+07,
2460854.500000000, A.D. 2025-Jun-28 00:00:00.0000, -1.368429026043235E+08, -1.420706665695245E+07, 6.323227952704362E+07,
2460861.500000000, A.D. 2025-Jul-05 00:00:00.0000, -1.354702316816421E+08, -3.189213854817764E+07, 6.569510426516071E+07,
2460868.500000000, A.D. 2025-Jul-12 00:00:00.0000, -1.322946231171992E+08, -4.915469522538154E+07, 6.728394010466880E+07,
2460875.500000000, A.D. 2025-Jul-19 00:00:00.0000, -1.274395122870384E+08, -6.579504465449142E+07, 6.801890491723602E+07,
2460882.500000000, A.D. 2025-Jul-26 00:00:00.0000, -1.210381079345789E+08, -8.163879057045878E+07, 6.792885115800293E+07,
2460889.500000000, A.D. 2025-Aug-02 00:00:00.0000, -1.132297319704279E+08, -9.653519221370843E+07, 6.704945560207303E+07,
2460896.500000000, A.D. 2025-Aug-09 00:00:00.0000, -1.041570025611354E+08, -1.103552297313179E+08, 6.542163237716425E+07,
2460903.500000000, A.D. 2025-Aug-16 00:00:00.0000, -9.396373947335395E+07, -1.229895728739826E+08, 6.309024989122573E+07,
2460910.500000000, A.D. 2025-Aug-23 00:00:00.0000, -8.279346700275931E+07, -1.343465883672872E+08, 6.010311992294568E+07,
2460917.500000000, A.D. 2025-Aug-30 00:00:00.0000, -7.078839789282492E+07, -1.443504724971685E+08, 5.651022243435153E+07,
2460924.500000000, A.D. 2025-Sep-06 00:00:00.0000, -5.808879712190396E+07, -1.529395598546332E+08, 5.236312980569459E+07,
2460931.500000000, A.D. 2025-Sep-13 00:00:00.0000, -4.483264021211120E+07, -1.600648380400957E+08, 4.771459654558706E+07,
2460938.500000000, A.D. 2025-Sep-20 00:00:00.0000, -3.115549085136283E+07, -1.656886810179804E+08, 4.261828402368286E+07,
2460945.500000000, A.D. 2025-Sep-27 00:00:00.0000, -1.719053829297627E+07, -1.697837989969650E+08, 3.712859459608595E+07,
2460952.500000000, A.D. 2025-Oct-04 00:00:00.0000, -3.068749376610462E+06, -1.723323996764060E+08, 3.130059360556344E+07,
2460959.500000000, A.D. 2025-Oct-11 00:00:00.0000, 1.108090259364799E+07, -1.733255546856981E+08, 2.519000104547695E+07,
2460966.500000000, A.D. 2025-Oct-18 00:00:00.0000, 2.513116367477445E+07, -1.727627639656612E+08, 1.885323764562849E+07,
2460973.500000000, A.D. 2025-Oct-25 00:00:00.0000, 3.895620637532234E+07, -1.706517114520593E+08, 1.234751246623479E+07,
2460980.500000000, A.D. 2025-Nov-01 00:00:00.0000, 5.243134149334746E+07, -1.670082070316340E+08, 5.730940682257451E+06,
2460987.500000000, A.D. 2025-Nov-08 00:00:00.0000, 6.543275698268557E+07, -1.618563117927710E+08, -9.373188304101899E+05,
2460994.500000000, A.D. 2025-Nov-15 00:00:00.0000, 7.783730661120376E+07, -1.552286457384650E+08, -7.596916269807868E+06,
2461001.500000000, A.D. 2025-Nov-22 00:00:00.0000, 8.952237330047399E+07, -1.471668785691448E+08, -1.418616479604948E+07,
2461008.500000000, A.D. 2025-Nov-29 00:00:00.0000, 1.003658349866932E+08, -1.377224041834750E+08, -2.064190757426181E+07,
2461015.500000000, A.D. 2025-Dec-06 00:00:00.0000, 1.102461638440222E+08, -1.269572006797198E+08, -2.689941220623224E+07,
2461022.500000000, A.D. 2025-Dec-13 00:00:00.0000, 1.190426991311829E+08, -1.149448790413124E+08, -3.289231058123016E+07,
2461029.500000000, A.D. 2025-Dec-20 00:00:00.0000, 1.266361452358964E+08, -1.017719149857742E+08, -3.855260650293969E+07,
2461036.500000000, A.D. 2025-Dec-27 00:00:00.0000, 1.329093514850383E+08, -8.753904905439954E+07, -4.381077851123483E+07,
2461043.500000000, A.D. 2026-Jan-03 00:00:00.0000, 1.377484402205411E+08, -7.236283049825151E+07, -4.859601234309077E+07,
2461050.500000000, A.D. 2026-Jan-10 00:00:00.0000, 1.410443612540207E+08, -5.637726132627812E+07, -5.283660543186475E+07,
2461057.500000000, A.D. 2026-Jan-17 00:00:00.0000, 1.426949588767268E+08, -3.973546866323106E+07, -5.646059413424323E+07,
2461064.500000000, A.D. 2026-Jan-24 00:00:00.0000, 1.426076403146112E+08, -2.261129558500481E+07, -5.939666220538220E+07,
2461071.500000000, A.D. 2026-Jan-31 00:00:00.0000, 1.407027277862045E+08, -5.200651184577484E+06, -6.157539467225994E+07,
2461078.500000000, A.D. 2026-Feb-07 00:00:00.0000, 1.369175538796215E+08, 1.227760026400112E+07, -6.293094188863260E+07,
2461085.500000000, A.D. 2026-Feb-14 00:00:00.0000, 1.312113138402179E+08, 2.958150065523815E+07, -6.340315009595346E+07,
2461092.500000000, A.D. 2026-Feb-21 00:00:00.0000, 1.235706092649510E+08, 4.644697035107785E+07, -6.294019170027135E+07,
2461099.500000000, A.D. 2026-Feb-28 00:00:00.0000, 1.140154964237019E+08, 6.259030884220862E+07, -6.150168479492073E+07,
2461106.500000000, A.D. 2026-Mar-07 00:00:00.0000, 1.026056883618454E+08, 7.771265631239139E+07, -5.906222257197449E+07,
2461113.500000000, A.D. 2026-Mar-14 00:00:00.0000, 8.944636621327834E+07, 9.150679608912349E+07, -5.561513645463689E+07,
2461120.500000000, A.D. 2026-Mar-21 00:00:00.0000, 7.469284719361967E+07, 1.036665252512479E+08, -5.117619680460422E+07,
2461127.500000000, A.D. 2026-Mar-28 00:00:00.0000, 5.855318818062807E+07, 1.138985272409789E+08, -4.578683110285239E+07,
2461134.500000000, A.D. 2026-Apr-04 00:00:00.0000, 4.128775453508279E+07, 1.219362532390043E+08, -3.951634353606252E+07,
2461141.500000000, A.D. 2026-Apr-11 00:00:00.0000, 2.320492613555516E+07, 1.275548101674101E+08, -3.246259447999075E+07,
2461148.500000000, A.D. 2026-Apr-18 00:00:00.0000, 4.652498052389774E+06, 1.305853693733568E+08, -2.475068621903309E+07,
2461155.500000000, A.D. 2026-Apr-25 00:00:00.0000, -1.399505103450732E+07, 1.309273081671167E+08, -1.652942399039146E+07,
2461162.500000000, A.D. 2026-May-02 00:00:00.0000, -3.235250987877908E+07, 1.285563325563255E+08, -7.965655510136306E+06,
2461169.500000000, A.D. 2026-May-09 00:00:00.0000, -5.004151934956836E+07, 1.235272744915810E+08, 7.630465357572660E+05,
2461176.500000000, A.D. 2026-May-16 00:00:00.0000, -6.670782145778661E+07, 1.159710237545724E+08, 9.476597680647001E+06,
2461183.500000000, A.D. 2026-May-23 00:00:00.0000, -8.203623927414657E+07, 1.060859899322925E+08, 1.800055806198912E+07,
2461190.500000000, A.D. 2026-May-30 00:00:00.0000, -9.576188224972434E+07, 9.412537788675240E+07, 2.617331544714618E+07,
2461197.500000000, A.D. 2026-Jun-06 00:00:00.0000, -1.076767833476002E+08, 8.038207286647660E+07, 3.385164753567247E+07,
2461204.500000000, A.D. 2026-Jun-13 00:00:00.0000, -1.176319571166530E+08, 6.517300208570912E+07, 4.091434724208883E+07,
2461211.500000000, A.D. 2026-Jun-20 00:00:00.0000, -1.255355087769025E+08, 4.882456530574818E+07, 4.726391276259037E+07,
2461218.500000000, A.D. 2026-Jun-27 00:00:00.0000, -1.313478014409747E+08, 3.166023286827533E+07, 5.282655587177905E+07,
2461225.500000000, A.D. 2026-Jul-04 00:00:00.0000, -1.350747934580349E+08, 1.399086254720634E+07, 5.755092553994729E+07,
2461232.500000000, A.D. 2026-Jul-11 00:00:00.0000, -1.367605579811660E+08, -3.892183629964642E+06, 6.140598199761500E+07,
2461239.500000000, A.D. 2026-Jul-18 00:00:00.0000, -1.364797804935471E+08, -2.172137080412601E+07, 6.437841768864229E+07,
2461246.500000000, A.D. 2026-Jul-25 00:00:00.0000, -1.343307787404220E+08, -3.925520026193091E+07, 6.646994146195674E+07,
2461253.500000000, A.D. 2026-Aug-01 00:00:00.0000, -1.304293592781177E+08, -5.627878530964590E+07, 6.769465054896063E+07,
2461260.500000000, A.D. 2026-Aug-08 00:00:00.0000, -1.249036432800197E+08, -7.260326197367106E+07, 6.807663058691803E+07,
2461267.500000000, A.D. 2026-Aug-15 00:00:00.0000, -1.178898677083504E+08, -8.806443638798121E+07, 6.764785647505471E+07,
2461274.500000000, A.D. 2026-Aug-22 00:00:00.0000, -1.095290917112633E+08, -1.025209880910822E+08, 6.644641841221987E+07,
2461281.500000000, A.D. 2026-Aug-29 00:00:00.0000, -9.996469986753851E+07, -1.158524705030542E+08, 6.451506573982731E+07,
2461288.500000000, A.D. 2026-Sep-05 00:00:00.0000, -8.934057569769192E+07, -1.279572812674116E+08, 6.190004240162117E+07,
2461295.500000000, A.D. 2026-Sep-12 00:00:00.0000, -7.779982087025358E+07, -1.387507134837911E+08, 5.865017950524066E+07,
$$EOE